ONEWEB-0299             
1 49088U 21075P   25265.13898917 -.00001941  00000+0 -50338-2 0  9997
2 49088  87.9064  59.1437 0001813  91.2154 268.9185 13.17632676198301
ONEWEB-0300             
1 49089U 21075Q   25265.13032740  .00000170  00000+0  43779-3 0  9995
2 49089  87.8920  43.9037 0001520  85.7445 274.3857 13.12444908200041
ONEWEB-0301             
1 49090U 21075R   25264.88538444 -.00000356  00000+0 -10253-2 0  9998
2 49090  87.8916  43.9566 0001459  83.3859 276.7436 13.12445118199375
ONEWEB-0302             
1 49091U 21075S   25265.10111522 -.00000280  00000+0 -81246-3 0  9996
2 49091  87.8918  43.9200 0001848 107.2226 252.9105 13.12441162199384
ONEWEB-0304             
1 49092U 21075T   25265.18960223  .00000047  00000+0  87099-4 0  9997
2 49092  87.9065  59.1646 0001843  93.4100 266.7243 13.17648265198286
ONEWEB-0305             
1 49093U 21075U   25265.18285638 -.00000006  00000+0 -48745-4 0  9990
2 49093  87.9065  59.1425 0002107  92.2117 267.9256 13.17647531198317
ONEWEB-0308             
1 49094U 21075V   25265.09463675 -.00000109  00000+0 -33778-3 0  9993
2 49094  87.8920  43.9133 0001624  96.6629 263.4684 13.12440649199394
ONEWEB-0309             
1 49095U 21075W   25265.18621986  .00000068  00000+0  14158-3 0  9998
2 49095  87.9064  59.1588 0001831 107.2050 252.9282 13.17649390198288
ONEWEB-0310             
1 49096U 21075X   25264.88051712 -.00000618  00000+0 -17541-2 0  9990
2 49096  87.8913  44.0000 0001707 100.9298 259.2022 13.12442589199996
ONEWEB-0311             
1 49097U 21075Y   25265.19296349  .00000024  00000+0  28306-4 0  9995
2 49097  87.9059  59.1549 0002035  88.6987 271.4378 13.17649898198330
ONEWEB-0312             
1 49098U 21075Z   25265.13222131  .00000087  00000+0  19126-3 0  9996
2 49098  87.9054  59.1984 0002012  98.2909 261.8451 13.17650210198307
ONEWEB-0313             
1 49099U 21075AA  25265.13714908  .00000014  00000+0  36544-5 0  9990
2 49099  87.9048  59.2084 0001816  93.8362 266.2978 13.17650569198296
ONEWEB-0314             
1 49100U 21075AB  25265.17948213 -.00000399  00000+0 -10613-2 0  9999
2 49100  87.9066  59.1403 0002064  96.5206 263.6160 13.17644691198277
ONEWEB-0315             
1 49101U 21075AC  25265.08328921  .00000282  00000+0  74748-3 0  9997
2 49101  87.8915  43.9054 0001924  87.3374 272.7975 13.12442495200004
ONEWEB-0316             
1 49102U 21075AD  25265.08718142  .00000012  00000+0 -21095-5 0  9997
2 49102  87.9207  28.7043 0001807  96.2936 263.8402 13.18685255201873
ONEWEB-0317             
1 49103U 21075AE  25265.15303565  .00000475  00000+0  12849-2 0  9991
2 49103  87.8918  43.9065 0001507 126.0341 234.0927 13.12444157200031
ONEWEB-0318             
1 49104U 21075AF  25265.08389486  .00000076  00000+0  15993-3 0  9991
2 49104  87.9208  28.6917 0001876  93.4423 266.6924 13.18686201201839
