[{"OBJECT_NAME":"ONEWEB-0299","OBJECT_ID":"2021-075P","EPOCH":"2025-09-22T03:20:08.664288","MEAN_MOTION":13.17632676,"ECCENTRICITY":0.0001813,"INCLINATION":87.9064,"RA_OF_ASC_NODE":59.1437,"ARG_OF_PERICENTER":91.2154,"MEAN_ANOMALY":268.9185,"EPHEMERIS_TYPE":0,"CLASSIFICATION_TYPE":"U","NORAD_CAT_ID":49088,"ELEMENT_SET_NO":999,"REV_AT_EPOCH":19830,"BSTAR":-0.0050338268,"MEAN_MOTION_DOT":-1.941e-5,"MEAN_MOTION_DDOT":0},{"OBJECT_NAME":"ONEWEB-0300","OBJECT_ID":"2021-075Q","EPOCH":"2025-09-22T03:07:40.287360","MEAN_MOTION":13.12444908,"ECCENTRICITY":0.00015207,"INCLINATION":87.892,"RA_OF_ASC_NODE":43.9037,"ARG_OF_PERICENTER":85.7445,"MEAN_ANOMALY":274.3857,"EPHEMERIS_TYPE":0,"CLASSIFICATION_TYPE":"U","NORAD_CAT_ID":49089,"ELEMENT_SET_NO":999,"REV_AT_EPOCH":20004,"BSTAR":0.00043779187,"MEAN_MOTION_DOT":1.7e-6,"MEAN_MOTION_DDOT":0},{"OBJECT_NAME":"ONEWEB-0301","OBJECT_ID":"2021-075R","EPOCH":"2025-09-21T21:14:57.215616","MEAN_MOTION":13.12445118,"ECCENTRICITY":0.00014597,"INCLINATION":87.8916,"RA_OF_ASC_NODE":43.9566,"ARG_OF_PERICENTER":83.3859,"MEAN_ANOMALY":276.7436,"EPHEMERIS_TYPE":0,"CLASSIFICATION_TYPE":"U","NORAD_CAT_ID":49090,"ELEMENT_SET_NO":999,"REV_AT_EPOCH":19937,"BSTAR":-0.0010253309,"MEAN_MOTION_DOT":-3.56e-6,"MEAN_MOTION_DDOT":0},{"OBJECT_NAME":"ONEWEB-0302","OBJECT_ID":"2021-075S","EPOCH":"2025-09-22T02:25:36.355008","MEAN_MOTION":13.12441162,"ECCENTRICITY":0.00018483,"INCLINATION":87.8918,"RA_OF_ASC_NODE":43.92,"ARG_OF_PERICENTER":107.2226,"MEAN_ANOMALY":252.9105,"EPHEMERIS_TYPE":0,"CLASSIFICATION_TYPE":"U","NORAD_CAT_ID":49091,"ELEMENT_SET_NO":999,"REV_AT_EPOCH":19938,"BSTAR":-0.00081246409,"MEAN_MOTION_DOT":-2.8e-6,"MEAN_MOTION_DDOT":0},{"OBJECT_NAME":"ONEWEB-0304","OBJECT_ID":"2021-075T","EPOCH":"2025-09-22T04:33:01.632672","MEAN_MOTION":13.17648265,"ECCENTRICITY":0.00018432,"INCLINATION":87.9065,"RA_OF_ASC_NODE":59.1646,"ARG_OF_PERICENTER":93.41,"MEAN_ANOMALY":266.7243,"EPHEMERIS_TYPE":0,"CLASSIFICATION_TYPE":"U","NORAD_CAT_ID":49092,"ELEMENT_SET_NO":999,"REV_AT_EPOCH":19828,"BSTAR":8.709917e-5,"MEAN_MOTION_DOT":4.7e-7,"MEAN_MOTION_DDOT":0},{"OBJECT_NAME":"ONEWEB-0305","OBJECT_ID":"2021-075U","EPOCH":"2025-09-22T04:23:18.791232","MEAN_MOTION":13.17647531,"ECCENTRICITY":0.00021078,"INCLINATION":87.9065,"RA_OF_ASC_NODE":59.1425,"ARG_OF_PERICENTER":92.2117,"MEAN_ANOMALY":267.9256,"EPHEMERIS_TYPE":0,"CLASSIFICATION_TYPE":"U","NORAD_CAT_ID":49093,"ELEMENT_SET_NO":999,"REV_AT_EPOCH":19831,"BSTAR":-4.8744507e-5,"MEAN_MOTION_DOT":-6.0e-8,"MEAN_MOTION_DDOT":0},{"OBJECT_NAME":"ONEWEB-0308","OBJECT_ID":"2021-075V","EPOCH":"2025-09-22T02:16:16.615200","MEAN_MOTION":13.12440649,"ECCENTRICITY":0.0001624,"INCLINATION":87.892,"RA_OF_ASC_NODE":43.9133,"ARG_OF_PERICENTER":96.6629,"MEAN_ANOMALY":263.4684,"EPHEMERIS_TYPE":0,"CLASSIFICATION_TYPE":"U","NORAD_CAT_ID":49094,"ELEMENT_SET_NO":999,"REV_AT_EPOCH":19939,"BSTAR":-0.00033778221,"MEAN_MOTION_DOT":-1.09e-6,"MEAN_MOTION_DDOT":0},{"OBJECT_NAME":"ONEWEB-0309","OBJECT_ID":"2021-075W","EPOCH":"2025-09-22T04:28:09.395904","MEAN_MOTION":13.1764939,"ECCENTRICITY":0.00018315,"INCLINATION":87.9064,"RA_OF_ASC_NODE":59.1588,"ARG_OF_PERICENTER":107.205,"MEAN_ANOMALY":252.9282,"EPHEMERIS_TYPE":0,"CLASSIFICATION_TYPE":"U","NORAD_CAT_ID":49095,"ELEMENT_SET_NO":999,"REV_AT_EPOCH":19828,"BSTAR":0.00014157545,"MEAN_MOTION_DOT":6.8e-7,"MEAN_MOTION_DDOT":0},{"OBJECT_NAME":"ONEWEB-0310","OBJECT_ID":"2021-075X","EPOCH":"2025-09-21T21:07:56.679168","MEAN_MOTION":13.12442589,"ECCENTRICITY":0.00017071,"INCLINATION":87.8913,"RA_OF_ASC_NODE":44,"ARG_OF_PERICENTER":100.9298,"MEAN_ANOMALY":259.2022,"EPHEMERIS_TYPE":0,"CLASSIFICATION_TYPE":"U","NORAD_CAT_ID":49096,"ELEMENT_SET_NO":999,"REV_AT_EPOCH":19999,"BSTAR":-0.0017540545,"MEAN_MOTION_DOT":-6.18e-6,"MEAN_MOTION_DDOT":0},{"OBJECT_NAME":"ONEWEB-0311","OBJECT_ID":"2021-075Y","EPOCH":"2025-09-22T04:37:52.045536","MEAN_MOTION":13.17649898,"ECCENTRICITY":0.00020357,"INCLINATION":87.9059,"RA_OF_ASC_NODE":59.1549,"ARG_OF_PERICENTER":88.6987,"MEAN_ANOMALY":271.4378,"EPHEMERIS_TYPE":0,"CLASSIFICATION_TYPE":"U","NORAD_CAT_ID":49097,"ELEMENT_SET_NO":999,"REV_AT_EPOCH":19833,"BSTAR":2.8306257e-5,"MEAN_MOTION_DOT":2.4e-7,"MEAN_MOTION_DDOT":0},{"OBJECT_NAME":"ONEWEB-0312","OBJECT_ID":"2021-075Z","EPOCH":"2025-09-22T03:10:23.921184","MEAN_MOTION":13.1765021,"ECCENTRICITY":0.00020122,"INCLINATION":87.9054,"RA_OF_ASC_NODE":59.1984,"ARG_OF_PERICENTER":98.2909,"MEAN_ANOMALY":261.8451,"EPHEMERIS_TYPE":0,"CLASSIFICATION_TYPE":"U","NORAD_CAT_ID":49098,"ELEMENT_SET_NO":999,"REV_AT_EPOCH":19830,"BSTAR":0.00019126298,"MEAN_MOTION_DOT":8.7e-7,"MEAN_MOTION_DDOT":0},{"OBJECT_NAME":"ONEWEB-0313","OBJECT_ID":"2021-075AA","EPOCH":"2025-09-22T03:17:29.680512","MEAN_MOTION":13.17650569,"ECCENTRICITY":0.0001816,"INCLINATION":87.9048,"RA_OF_ASC_NODE":59.2084,"ARG_OF_PERICENTER":93.8362,"MEAN_ANOMALY":266.2978,"EPHEMERIS_TYPE":0,"CLASSIFICATION_TYPE":"U","NORAD_CAT_ID":49099,"ELEMENT_SET_NO":999,"REV_AT_EPOCH":19829,"BSTAR":3.654447e-6,"MEAN_MOTION_DOT":1.4e-7,"MEAN_MOTION_DDOT":0},{"OBJECT_NAME":"ONEWEB-0314","OBJECT_ID":"2021-075AB","EPOCH":"2025-09-22T04:18:27.256032","MEAN_MOTION":13.17644691,"ECCENTRICITY":0.00020645,"INCLINATION":87.9066,"RA_OF_ASC_NODE":59.1403,"ARG_OF_PERICENTER":96.5206,"MEAN_ANOMALY":263.616,"EPHEMERIS_TYPE":0,"CLASSIFICATION_TYPE":"U","NORAD_CAT_ID":49100,"ELEMENT_SET_NO":999,"REV_AT_EPOCH":19827,"BSTAR":-0.0010612754,"MEAN_MOTION_DOT":-3.99e-6,"MEAN_MOTION_DDOT":0},{"OBJECT_NAME":"ONEWEB-0315","OBJECT_ID":"2021-075AC","EPOCH":"2025-09-22T01:59:56.187744","MEAN_MOTION":13.12442495,"ECCENTRICITY":0.00019244,"INCLINATION":87.8915,"RA_OF_ASC_NODE":43.9054,"ARG_OF_PERICENTER":87.3374,"MEAN_ANOMALY":272.7975,"EPHEMERIS_TYPE":0,"CLASSIFICATION_TYPE":"U","NORAD_CAT_ID":49101,"ELEMENT_SET_NO":999,"REV_AT_EPOCH":20000,"BSTAR":0.00074747577,"MEAN_MOTION_DOT":2.82e-6,"MEAN_MOTION_DDOT":0},{"OBJECT_NAME":"ONEWEB-0316","OBJECT_ID":"2021-075AD","EPOCH":"2025-09-22T02:05:32.474688","MEAN_MOTION":13.18685255,"ECCENTRICITY":0.00018078,"INCLINATION":87.9207,"RA_OF_ASC_NODE":28.7043,"ARG_OF_PERICENTER":96.2936,"MEAN_ANOMALY":263.8402,"EPHEMERIS_TYPE":0,"CLASSIFICATION_TYPE":"U","NORAD_CAT_ID":49102,"ELEMENT_SET_NO":999,"REV_AT_EPOCH":20187,"BSTAR":-2.109462e-6,"MEAN_MOTION_DOT":1.2e-7,"MEAN_MOTION_DDOT":0},{"OBJECT_NAME":"ONEWEB-0317","OBJECT_ID":"2021-075AE","EPOCH":"2025-09-22T03:40:22.280160","MEAN_MOTION":13.12444157,"ECCENTRICITY":0.00015071,"INCLINATION":87.8918,"RA_OF_ASC_NODE":43.9065,"ARG_OF_PERICENTER":126.0341,"MEAN_ANOMALY":234.0927,"EPHEMERIS_TYPE":0,"CLASSIFICATION_TYPE":"U","NORAD_CAT_ID":49103,"ELEMENT_SET_NO":999,"REV_AT_EPOCH":20003,"BSTAR":0.0012849075,"MEAN_MOTION_DOT":4.75e-6,"MEAN_MOTION_DDOT":0},{"OBJECT_NAME":"ONEWEB-0318","OBJECT_ID":"2021-075AF","EPOCH":"2025-09-22T02:00:48.515904","MEAN_MOTION":13.18686201,"ECCENTRICITY":0.00018762,"INCLINATION":87.9208,"RA_OF_ASC_NODE":28.6917,"ARG_OF_PERICENTER":93.4423,"MEAN_ANOMALY":266.6924,"EPHEMERIS_TYPE":0,"CLASSIFICATION_TYPE":"U","NORAD_CAT_ID":49104,"ELEMENT_SET_NO":999,"REV_AT_EPOCH":20183,"BSTAR":0.00015992746,"MEAN_MOTION_DOT":7.6e-7,"MEAN_MOTION_DDOT":0}]
